OBJECT_NAME,OBJECT_ID,EPOCH,MEAN_MOTION,ECCENTRICITY,INCLINATION,RA_OF_ASC_NODE,ARG_OF_PERICENTER,MEAN_ANOMALY,EPHEMERIS_TYPE,CLASSIFICATION_TYPE,NORAD_CAT_ID,ELEMENT_SET_NO,REV_AT_EPOCH,BSTAR,MEAN_MOTION_DOT,MEAN_MOTION_DDOT
STARLINK-37345,2026-111J,2026-06-11T21:25:15.887136,15.81004506,.00010128,53.1575,178.1463,136.1425,223.9679,0,U,69156,999,342,.16038945E-2,.330267E-2,0
STARLINK-37353,2026-111K,2026-06-11T21:24:57.182400,15.80981235,.00009984,53.1578,178.1447,131.5225,228.5884,0,U,69157,999,342,.13784209E-2,.281828E-2,0
STARLINK-37363,2026-111L,2026-06-11T21:21:57.995712,15.81025663,.00008195,53.1577,178.1314,115.7219,244.3888,0,U,69158,999,342,.19258602E-2,.400387E-2,0
STARLINK-37343,2026-111M,2026-06-11T22:00:01.999584,15.53113171,.00018744,53.1593,178.5304,99.4716,148.6227,0,U,69159,999,470,-.3990238E-1,-.2241676E-1,0
STARLINK-37328,2026-111N,2026-06-11T21:21:46.886400,15.81024369,.00008934,53.1578,178.1296,132.8883,227.2215,0,U,69160,999,342,.18462446E-2,.382995E-2,0
STARLINK-37311,2026-111P,2026-06-11T21:33:51.112800,15.78146666,.00009996,53.1581,178.1864,78.2736,281.8397,0,U,69161,999,342,.15817806E-2,.284483E-2,0
STARLINK-36286,2026-111Q,2026-06-11T21:32:36.248928,15.78110826,.00009825,53.1577,178.1801,79.0010,281.1122,0,U,69162,999,342,.10151367E-2,.179794E-2,0
STARLINK-37196,2026-111R,2026-06-11T21:36:32.205600,15.78182134,.00008514,53.1584,178.1973,124.7955,235.3147,0,U,69163,999,342,.19116349E-2,.347066E-2,0
STARLINK-36288,2026-111S,2026-06-11T21:35:22.234560,15.78150020,.00007958,53.1583,178.1915,110.2399,249.8708,0,U,69164,999,342,.14259341E-2,.25555E-2,0
STARLINK-37445,2026-111T,2026-06-11T12:23:39.276384,15.78106147,.0001187,53.1584,180.0671,78.5702,281.5453,0,U,69165,999,336,.90775E-3,.1603E-2,0
STARLINK-37491,2026-111U,2026-06-11T21:34:13.685664,15.78162541,.00009299,53.1579,178.1863,118.9621,241.1494,0,U,69166,999,342,.16091647E-2,.289809E-2,0
STARLINK-37474,2026-111V,2026-06-11T21:30:32.111136,15.78167288,.00007118,53.1581,178.1689,140.0391,220.0683,0,U,69167,999,342,.1348744E-2,.241465E-2,0
STARLINK-37469,2026-111W,2026-06-11T22:00:01.999584,15.49255154,.00008324,53.1589,178.7093,124.7395,34.0235,0,U,69168,999,470,.13932835E-2,.77666E-3,0
STARLINK-37515,2026-111X,2026-06-11T21:28:11.400096,15.78140120,.00007244,53.1584,178.1575,110.9048,249.2051,0,U,69169,999,342,.13225773E-2,.236335E-2,0
STARLINK-37437,2026-111Y,2026-06-11T22:00:01.999584,15.78052413,.00009652,53.1582,177.9970,93.4992,56.6246,0,U,69170,999,470,-.11693879E-3,-.20919E-3,0
STARLINK-37392,2026-111Z,2026-06-11T21:18:24.065856,15.78152241,.00007834,53.1585,178.1123,114.0717,246.0386,0,U,69171,999,342,.15332953E-2,.275521E-2,0
STARLINK-37472,2026-111AA,2026-06-11T22:00:01.999584,15.69615053,.00013281,53.1590,177.9808,83.3491,73.4780,0,U,69172,999,470,-.24367223E-1,-.2561662E-1,0
STARLINK-37461,2026-111AB,2026-06-11T22:00:01.999584,15.49262645,.00012512,53.1584,178.6167,112.9008,91.2549,0,U,69173,999,470,.15565933E-2,.8695E-3,0
STARLINK-37333,2026-111AC,2026-06-11T12:18:43.925760,15.77697826,.0002234,53.1581,180.0439,62.8478,297.2771,0,U,69174,999,336,-.25704E-2,-.419143E-2,0
STARLINK-37385,2026-111AD,2026-06-11T22:00:01.999584,15.49239232,.00009602,53.1588,178.5296,75.8447,171.1653,0,U,69175,999,470,.16513673E-2,.92258E-3,0
STARLINK-37414,2026-111AE,2026-06-11T21:19:34.518144,15.78135541,.00010983,53.1583,178.1175,114.8458,245.2678,0,U,69176,999,342,.13410191E-2,.239682E-2,0
STRIX-7,2026-112A,2026-06-11T15:35:57.383808,15.01410370,.00236836,44.9063,221.5317,15.5865,344.5731,0,U,69177,999,304,.22160591E-3,.2686E-4,0
SHENZHOU-23 (SZ-23),2026-113A,2026-06-11T20:35:12.960096,15.60577765,.00081612,41.4694,354.4301,33.9866,326.1495,0,U,69180,999,29257,.20494863E-3,.17149E-3,0
STARLINK-37380,2026-114A,2026-06-11T18:32:59.646048,15.78096172,.00010342,53.1586,229.5304,92.5631,267.5509,0,U,69182,999,391,.70980195E-3,.124615E-2,0
STARLINK-37089,2026-114B,2026-06-11T18:31:38.815392,15.78107250,.0000979,53.1589,229.5243,94.4791,265.6342,0,U,69183,999,391,.74177675E-3,.130413E-2,0
STARLINK-37428,2026-114C,2026-06-11T18:29:37.200480,15.78130624,.00009231,53.1589,229.5153,91.9085,268.2043,0,U,69184,999,391,.10553975E-2,.187283E-2,0
STARLINK-37237,2026-114D,2026-06-11T18:25:39.248832,15.78104989,.00008429,53.1593,229.4963,133.1072,227.0020,0,U,69185,999,391,.68054256E-3,.119424E-2,0
STARLINK-37365,2026-114E,2026-06-11T18:26:06.526176,15.78117991,.00009369,53.1591,229.4981,146.7460,213.3621,0,U,69186,999,391,.10928622E-2,.193999E-2,0
STARLINK-37209,2026-114F,2026-06-11T18:24:59.904000,15.78105239,.00010429,53.1594,229.4930,87.7089,272.4052,0,U,69187,999,391,.78913098E-3,.138908E-2,0
