STARLINK-37345          
1 69156U 26111J   26162.89254499  .00330267  00000+0  16039-2 0  9996
2 69156  53.1575 178.1463 0001012 136.1425 223.9679 15.81004506  3428
STARLINK-37353          
1 69157U 26111K   26162.89232850  .00281828  00000+0  13784-2 0  9996
2 69157  53.1578 178.1447 0000998 131.5225 228.5884 15.80981235  3424
STARLINK-37363          
1 69158U 26111L   26162.89025458  .00400387  00000+0  19259-2 0  9997
2 69158  53.1577 178.1314 0000819 115.7219 244.3888 15.81025663  3421
STARLINK-37343          
1 69159U 26111M   26162.91668981 -.02241676  00000+0 -39902-1 0  9999
2 69159  53.1593 178.5304 0001874  99.4716 148.6227 15.53113171  4701
STARLINK-37328          
1 69160U 26111N   26162.89012600  .00382995  00000+0  18462-2 0  9994
2 69160  53.1578 178.1296 0000893 132.8883 227.2215 15.81024369  3429
STARLINK-37311          
1 69161U 26111P   26162.89850825  .00284483  00000+0  15818-2 0  9999
2 69161  53.1581 178.1864 0000999  78.2736 281.8397 15.78146666  3420
STARLINK-36286          
1 69162U 26111Q   26162.89764177  .00179794  00000+0  10151-2 0  9997
2 69162  53.1577 178.1801 0000982  79.0010 281.1122 15.78110826  3421
STARLINK-37196          
1 69163U 26111R   26162.90037275  .00347066  00000+0  19116-2 0  9991
2 69163  53.1584 178.1973 0000851 124.7955 235.3147 15.78182134  3420
STARLINK-36288          
1 69164U 26111S   26162.89956290  .00255550  00000+0  14259-2 0  9996
2 69164  53.1583 178.1915 0000795 110.2399 249.8708 15.78150020  3427
STARLINK-37445          
1 69165U 26111T   26162.51642681  .00160300  00000+0  90775-3 0  9998
2 69165  53.1584 180.0671 0001187  78.5702 281.5453 15.78106147  3364
STARLINK-37491          
1 69166U 26111U   26162.89876951  .00289809  00000+0  16092-2 0  9994
2 69166  53.1579 178.1863 0000929 118.9621 241.1494 15.78162541  3426
STARLINK-37474          
1 69167U 26111V   26162.89620499  .00241465  00000+0  13487-2 0  9990
2 69167  53.1581 178.1689 0000711 140.0391 220.0683 15.78167288  3424
STARLINK-37469          
1 69168U 26111W   26162.91668981  .00077666  00000+0  13933-2 0  9998
2 69168  53.1589 178.7093 0000832 124.7395  34.0235 15.49255154  4701
STARLINK-37515          
1 69169U 26111X   26162.89457639  .00236335  00000+0  13226-2 0  9997
2 69169  53.1584 178.1575 0000724 110.9048 249.2051 15.78140120  3420
STARLINK-37437          
1 69170U 26111Y   26162.91668981 -.00020919  00000+0 -11694-3 0  9995
2 69170  53.1582 177.9970 0000965  93.4992  56.6246 15.78052413  4701
STARLINK-37392          
1 69171U 26111Z   26162.88777854  .00275521  00000+0  15333-2 0  9994
2 69171  53.1585 178.1123 0000783 114.0717 246.0386 15.78152241  3429
STARLINK-37472          
1 69172U 26111AA  26162.91668981 -.02561662  00000+0 -24367-1 0  9993
2 69172  53.1590 177.9808 0001328  83.3491  73.4780 15.69615053  4703
STARLINK-37461          
1 69173U 26111AB  26162.91668981  .00086950  00000+0  15566-2 0  9994
2 69173  53.1584 178.6167 0001251 112.9008  91.2549 15.49262645  4705
STARLINK-37333          
1 69174U 26111AC  26162.51300840 -.00419143  00000+0 -25704-2 0  9999
2 69174  53.1581 180.0439 0002234  62.8478 297.2771 15.77697826  3368
STARLINK-37385          
1 69175U 26111AD  26162.91668981  .00092258  00000+0  16514-2 0  9998
2 69175  53.1588 178.5296 0000960  75.8447 171.1653 15.49239232  4703
STARLINK-37414          
1 69176U 26111AE  26162.88859396  .00239682  00000+0  13410-2 0  9993
2 69176  53.1583 178.1175 0001098 114.8458 245.2678 15.78135541  3428
STRIX-7                 
1 69177U 26112A   26162.64996972  .00002686  00000+0  22161-3 0  9997
2 69177  44.9063 221.5317 0023683  15.5865 344.5731 15.01410370  3047
SHENZHOU-23 (SZ-23)     
1 69180U 26113A   26162.85778889  .00017149  00000+0  20495-3 0  9998
2 69180  41.4694 354.4301 0008161  33.9866 326.1495 15.60577765292579
STARLINK-37380          
1 69182U 26114A   26162.77291257  .00124615  00000+0  70980-3 0  9992
2 69182  53.1586 229.5304 0001034  92.5631 267.5509 15.78096172  3918
STARLINK-37089          
1 69183U 26114B   26162.77197703  .00130413  00000+0  74178-3 0  9990
2 69183  53.1589 229.5243 0000979  94.4791 265.6342 15.78107250  3913
STARLINK-37428          
1 69184U 26114C   26162.77056945  .00187283  00000+0  10554-2 0  9997
2 69184  53.1589 229.5153 0000923  91.9085 268.2043 15.78130624  3919
STARLINK-37237          
1 69185U 26114D   26162.76781538  .00119424  00000+0  68054-3 0  9991
2 69185  53.1593 229.4963 0000842 133.1072 227.0020 15.78104989  3911
STARLINK-37365          
1 69186U 26114E   26162.76813109  .00193999  00000+0  10929-2 0  9998
2 69186  53.1591 229.4981 0000936 146.7460 213.3621 15.78117991  3917
STARLINK-37209          
1 69187U 26114F   26162.76736000  .00138908  00000+0  78913-3 0  9990
2 69187  53.1594 229.4930 0001042  87.7089 272.4052 15.78105239  3911
